{"type": "FeatureCollection", "features": [ {"type": "Feature", "properties": {"norad_id": 30501, "name": "FENGYUN 1C DEB", "group": "fengyun-1c-debris", "lat": 8.929470113903799, "lon": 170.89446951316026, "alt_km": 779.4807452672549, "timestamp": "2025-12-24T05:51:19.885223+00:00", "meta": {"OBJECT_NAME": "FENGYUN 1C DEB", "OBJECT_ID": "1999-025AHP", "EPOCH": "2025-12-23T22:27:29.967264", "MEAN_MOTION": 14.25415034, "ECCENTRICITY": 0.0040764, "INCLINATION": 99.0848, "RA_OF_ASC_NODE": 349.1348, "ARG_OF_PERICENTER": 170.1537, "MEAN_ANOMALY": 219.9473, "EPHEMERIS_TYPE": 0, "CLASSIFICATION_TYPE": "U", "NORAD_CAT_ID": 30501, "ELEMENT_SET_NO": 999, "REV_AT_EPOCH": 97079, "BSTAR": 0.0015032309, "MEAN_MOTION_DOT": 3.532e-05, "MEAN_MOTION_DDOT": 0}, "tle": {"line1": "1 30501U 99025AHP 25357.93576351  .00003532  00000+0  15032-2 0  9990", "line2": "2 30501  99.0848 349.1348 0040764 170.1537 219.9473 14.25415034970792"}}, "geometry": {"type": "Point", "coordinates": [170.89446951316026, 8.929470113903799]}}, {"type": "Feature", "properties": {"norad_id": 30503, "name": "FENGYUN 1C DEB", "group": "fengyun-1c-debris", "lat": 4.159642150449306, "lon": -158.5291933617606, "alt_km": 844.8690332432834, "timestamp": "2025-12-24T05:51:19.885234+00:00", "meta": {"OBJECT_NAME": "FENGYUN 1C DEB", "OBJECT_ID": "1999-025AHR", "EPOCH": "2025-12-23T19:42:49.991616", "MEAN_MOTION": 14.16136541, "ECCENTRICITY": 0.0008334, "INCLINATION": 99.2039, "RA_OF_ASC_NODE": 201.71, "ARG_OF_PERICENTER": 232.6771, "MEAN_ANOMALY": 138.4826, "EPHEMERIS_TYPE": 0, "CLASSIFICATION_TYPE": "U", "NORAD_CAT_ID": 30503, "ELEMENT_SET_NO": 999, "REV_AT_EPOCH": 97503, "BSTAR": 0.00025242661, "MEAN_MOTION_DOT": 4.52e-06, "MEAN_MOTION_DDOT": 0}, "tle": {"line1": "1 30503U 99025AHR 25357.82141194  .00000452  00000+0  25243-3 0  9997", "line2": "2 30503  99.2039 201.7100 0008334 232.6771 138.4826 14.16136541975030"}}, "geometry": {"type": "Point", "coordinates": [-158.5291933617606, 4.159642150449306]}}, {"type": "Feature", "properties": {"norad_id": 30504, "name": "FENGYUN 1C DEB", "group": "fengyun-1c-debris", "lat": 36.46908335962798, "lon": 37.91620719988848, "alt_km": 888.4023900911197, "timestamp": "2025-12-24T05:51:19.885244+00:00", "meta": {"OBJECT_NAME": "FENGYUN 1C DEB", "OBJECT_ID": "1999-025AHS", "EPOCH": "2025-12-23T02:45:07.138944", "MEAN_MOTION": 14.20520292, "ECCENTRICITY": 0.01126037, "INCLINATION": 99.024, "RA_OF_ASC_NODE": 43.5093, "ARG_OF_PERICENTER": 186.9197, "MEAN_ANOMALY": 198.9363, "EPHEMERIS_TYPE": 0, "CLASSIFICATION_TYPE": "U", "NORAD_CAT_ID": 30504, "ELEMENT_SET_NO": 999, "REV_AT_EPOCH": 97541, "BSTAR": 0.00053489089, "MEAN_MOTION_DOT": 1.179e-05, "MEAN_MOTION_DDOT": 0}, "tle": {"line1": "1 30504U 99025AHS 25357.11466596  .00001179  00000+0  53489-3 0  9996", "line2": "2 30504  99.0240  43.5093 0112603 186.9197 198.9363 14.20520292975418"}}, "geometry": {"type": "Point", "coordinates": [37.91620719988848, 36.46908335962798]}}, {"type": "Feature", "properties": {"norad_id": 30505, "name": "FENGYUN 1C DEB", "group": "fengyun-1c-debris", "lat": 2.7526694597351766, "lon": 77.60917453104976, "alt_km": 862.0687787563629, "timestamp": "2025-12-24T05:51:19.885254+00:00", "meta": {"OBJECT_NAME": "FENGYUN 1C DEB", "OBJECT_ID": "1999-025AHT", "EPOCH": "2025-12-23T11:50:32.743392", "MEAN_MOTION": 14.22108274, "ECCENTRICITY": 0.00642587, "INCLINATION": 98.9253, "RA_OF_ASC_NODE": 77.2827, "ARG_OF_PERICENTER": 211.6093, "MEAN_ANOMALY": 270.6258, "EPHEMERIS_TYPE": 0, "CLASSIFICATION_TYPE": "U", "NORAD_CAT_ID": 30505, "ELEMENT_SET_NO": 999, "REV_AT_EPOCH": 97076, "BSTAR": 0.0016025341, "MEAN_MOTION_DOT": 3.579e-05, "MEAN_MOTION_DDOT": 0}, "tle": {"line1": "1 30505U 99025AHT 25357.49343453  .00003579  00000+0  16025-2 0  9994", "line2": "2 30505  98.9253  77.2827 0064258 211.6093 270.6258 14.22108274970761"}}, "geometry": {"type": "Point", "coordinates": [77.60917453104976, 2.7526694597351766]}}, {"type": "Feature", "properties": {"norad_id": 30506, "name": "FENGYUN 1C DEB", "group": "fengyun-1c-debris", "lat": -15.324610245673195, "lon": -179.43442558645785, "alt_km": 893.5532938425322, "timestamp": "2025-12-24T05:51:19.885264+00:00", "meta": {"OBJECT_NAME": "FENGYUN 1C DEB", "OBJECT_ID": "1999-025AHU", "EPOCH": "2025-12-23T23:54:21.076992", "MEAN_MOTION": 14.08663177, "ECCENTRICITY": 0.00698308, "INCLINATION": 98.7569, "RA_OF_ASC_NODE": 2.7456, "ARG_OF_PERICENTER": 315.9856, "MEAN_ANOMALY": 63.6424, "EPHEMERIS_TYPE": 0, "CLASSIFICATION_TYPE": "U", "NORAD_CAT_ID": 30506, "ELEMENT_SET_NO": 999, "REV_AT_EPOCH": 96980, "BSTAR": 0.00025798684, "MEAN_MOTION_DOT": 4.11e-06, "MEAN_MOTION_DDOT": 0}, "tle": {"line1": "1 30506U 99025AHU 25357.99607728  .00000411  00000+0  25799-3 0  9999", "line2": "2 30506  98.7569   2.7456 0069830 315.9856  63.6424 14.08663177969807"}}, "geometry": {"type": "Point", "coordinates": [-179.43442558645785, -15.324610245673195]}}, {"type": "Feature", "properties": {"norad_id": 30507, "name": "FENGYUN 1C DEB", "group": "fengyun-1c-debris", "lat": 38.49811760742247, "lon": -109.93661532441789, "alt_km": 752.7452288400764, "timestamp": "2025-12-24T05:51:19.885277+00:00", "meta": {"OBJECT_NAME": "FENGYUN 1C DEB", "OBJECT_ID": "1999-025AHV", "EPOCH": "2025-12-22T11:18:45.124704", "MEAN_MOTION": 14.13218957, "ECCENTRICITY": 0.01284187, "INCLINATION": 99.0129, "RA_OF_ASC_NODE": 61.0259, "ARG_OF_PERICENTER": 149.106, "MEAN_ANOMALY": 338.4187, "EPHEMERIS_TYPE": 0, "CLASSIFICATION_TYPE": "U", "NORAD_CAT_ID": 30507, "ELEMENT_SET_NO": 999, "REV_AT_EPOCH": 96635, "BSTAR": 0.00099570229, "MEAN_MOTION_DOT": 1.972e-05, "MEAN_MOTION_DDOT": 0}, "tle": {"line1": "1 30507U 99025AHV 25356.47135561  .00001972  00000+0  99570-3 0  9994", "line2": "2 30507  99.0129  61.0259 0128418 149.1060 338.4187 14.13218957966359"}}, "geometry": {"type": "Point", "coordinates": [-109.93661532441789, 38.49811760742247]}}, {"type": "Feature", "properties": {"norad_id": 30509, "name": "FENGYUN 1C DEB", "group": "fengyun-1c-debris", "lat": 80.71713820462627, "lon": 163.7103426328591, "alt_km": 816.8370485720261, "timestamp": "2025-12-24T05:51:19.885288+00:00", "meta": {"OBJECT_NAME": "FENGYUN 1C DEB", "OBJECT_ID": "1999-025AHX", "EPOCH": "2025-12-22T09:57:09.685152", "MEAN_MOTION": 14.0771344, "ECCENTRICITY": 0.01023458, "INCLINATION": 98.4652, "RA_OF_ASC_NODE": 227.6575, "ARG_OF_PERICENTER": 36.2478, "MEAN_ANOMALY": 143.7539, "EPHEMERIS_TYPE": 0, "CLASSIFICATION_TYPE": "U", "NORAD_CAT_ID": 30509, "ELEMENT_SET_NO": 999, "REV_AT_EPOCH": 95858, "BSTAR": 0.0021282771, "MEAN_MOTION_DOT": 3.738e-05, "MEAN_MOTION_DDOT": 0}, "tle": {"line1": "1 30509U 99025AHX 25356.41469543  .00003738  00000+0  21283-2 0  9997", "line2": "2 30509  98.4652 227.6575 0102345  36.2478 143.7539 14.07713440958580"}}, "geometry": {"type": "Point", "coordinates": [163.7103426328591, 80.71713820462627]}}, {"type": "Feature", "properties": {"norad_id": 30510, "name": "FENGYUN 1C DEB", "group": "fengyun-1c-debris", "lat": -9.746554439281674, "lon": 12.24387824068088, "alt_km": 899.4231891625323, "timestamp": "2025-12-24T05:51:19.885298+00:00", "meta": {"OBJECT_NAME": "FENGYUN 1C DEB", "OBJECT_ID": "1999-025AHY", "EPOCH": "2025-12-23T23:22:40.714176", "MEAN_MOTION": 14.12903372, "ECCENTRICITY": 0.00787535, "INCLINATION": 99.2449, "RA_OF_ASC_NODE": 10.3622, "ARG_OF_PERICENTER": 135.0072, "MEAN_ANOMALY": 283.6993, "EPHEMERIS_TYPE": 0, "CLASSIFICATION_TYPE": "U", "NORAD_CAT_ID": 30510, "ELEMENT_SET_NO": 999, "REV_AT_EPOCH": 96733, "BSTAR": 0.0014386039, "MEAN_MOTION_DOT": 2.712e-05, "MEAN_MOTION_DDOT": 0}, "tle": {"line1": "1 30510U 99025AHY 25357.97408234  .00002712  00000+0  14386-2 0  9998", "line2": "2 30510  99.2449  10.3622 0078753 135.0072 283.6993 14.12903372967330"}}, "geometry": {"type": "Point", "coordinates": [12.24387824068088, -9.746554439281674]}}, {"type": "Feature", "properties": {"norad_id": 30514, "name": "FENGYUN 1C DEB", "group": "fengyun-1c-debris", "lat": -55.707446470739534, "lon": 34.00561572001892, "alt_km": 838.2263879441289, "timestamp": "2025-12-24T05:51:19.885311+00:00", "meta": {"OBJECT_NAME": "FENGYUN 1C DEB", "OBJECT_ID": "1999-025AJC", "EPOCH": "2025-12-23T21:44:53.115648", "MEAN_MOTION": 14.3439023, "ECCENTRICITY": 0.0174195, "INCLINATION": 98.4121, "RA_OF_ASC_NODE": 21.1444, "ARG_OF_PERICENTER": 61.06, "MEAN_ANOMALY": 300.793, "EPHEMERIS_TYPE": 0, "CLASSIFICATION_TYPE": "U", "NORAD_CAT_ID": 30514, "ELEMENT_SET_NO": 999, "REV_AT_EPOCH": 98385, "BSTAR": 0.00046478595, "MEAN_MOTION_DOT": 1.505e-05, "MEAN_MOTION_DDOT": 0}, "tle": {"line1": "1 30514U 99025AJC 25357.90617032  .00001505  00000+0  46479-3 0  9991", "line2": "2 30514  98.4121  21.1444 0174195  61.0600 300.7930 14.34390230983850"}}, "geometry": {"type": "Point", "coordinates": [34.00561572001892, -55.707446470739534]}}, {"type": "Feature", "properties": {"norad_id": 30515, "name": "FENGYUN 1C DEB", "group": "fengyun-1c-debris", "lat": 77.34275855088744, "lon": -168.79033731026024, "alt_km": 712.3031925778341, "timestamp": "2025-12-24T05:51:19.885322+00:00", "meta": {"OBJECT_NAME": "FENGYUN 1C DEB", "OBJECT_ID": "1999-025AJD", "EPOCH": "2025-12-23T08:35:59.927136", "MEAN_MOTION": 13.63827177, "ECCENTRICITY": 0.04970055, "INCLINATION": 98.5092, "RA_OF_ASC_NODE": 232.2372, "ARG_OF_PERICENTER": 46.5465, "MEAN_ANOMALY": 4.7977, "EPHEMERIS_TYPE": 0, "CLASSIFICATION_TYPE": "U", "NORAD_CAT_ID": 30515, "ELEMENT_SET_NO": 999, "REV_AT_EPOCH": 93475, "BSTAR": 0.00097294919, "MEAN_MOTION_DOT": 1.759e-05, "MEAN_MOTION_DDOT": 0}, "tle": {"line1": "1 30515U 99025AJD 25357.35833249  .00001759  00000+0  97295-3 0  9994", "line2": "2 30515  98.5092 232.2372 0497005  46.5465   4.7977 13.63827177934752"}}, "geometry": {"type": "Point", "coordinates": [-168.79033731026024, 77.34275855088744]}}]}